NORAD_CAT_ID,OBJECT_NAME,OBJECT_TYPE,EPOCH,MEAN_MOTION,ECCENTRICITY,INCLINATION,RA_OF_ASC_NODE,ARG_OF_PERICENTER,MEAN_ANOMALY,BSTAR,MEAN_MOTION_DOT,MEAN_MOTION_DDOT,TLE_LINE0,TLE_LINE1,TLE_LINE2,SEMIMAJOR_AXIS,PERIOD,APOGEE,PERIGEE,DECAYED
53418.0,STARLINK-4481,PAYLOAD,2023-03-30 16:53:49,15.08852083,0.000104,53.2139,249.487,67.8938,292.2164,0.00076694,0.00011943,0.0,0 STARLINK-4481,1 53418U 22097AG  23089.70404734  .00011943  00000-0  76694-3 0  9995,2 53418  53.2139 249.4870 0001040  67.8938 292.2164 15.08852083 36023,6917.843,95.437,540.428,538.989,0.0
53418.0,STARLINK-4481,PAYLOAD,2023-03-31 13:33:50,15.08844307,0.0001104,53.2138,245.6209,66.9549,293.1559,0.00028729,4.288e-05,0.0,0 STARLINK-4481,1 53418U 22097AG  23090.56516871  .00004288  00000-0  28729-3 0  9997,2 53418  53.2138 245.6209 0001104  66.9549 293.1559 15.08844307 36157,6917.867,95.437,540.496,538.968,0.0
53418.0,STARLINK-4481,PAYLOAD,2023-04-01 13:24:39,15.08811093,8.1e-05,53.2142,241.1584,115.9858,244.1218,0.00057712,8.902e-05,0.0,0 STARLINK-4481,1 53418U 22097AG  23091.55878865  .00008902  00000-0  57712-3 0  9992,2 53418  53.2142 241.1584 0000810 115.9858 244.1218 15.08811093 36794,6917.969,95.439,540.394,539.273,0.0
53418.0,STARLINK-4481,PAYLOAD,2023-04-01 16:35:25,15.0882229,9.35e-05,53.2147,240.564,112.0947,248.0144,0.0002705,4.018e-05,0.0,0 STARLINK-4481,1 53418U 22097AG  23091.69126281  .00004018  00000-0  27050-3 0  9991,2 53418  53.2147 240.5640 0000935 112.0947 248.0144 15.08822290 36321,6917.935,95.439,540.446,539.153,0.0
53418.0,STARLINK-4481,PAYLOAD,2023-04-02 08:29:15,15.08841504,8.89e-05,53.2159,237.5881,119.4603,240.6478,3.2927e-05,2.36e-06,0.0,0 STARLINK-4481,1 53418U 22097AG  23092.35365469  .00000236  00000-0  32927-4 0  9996,2 53418  53.2159 237.5881 0000889 119.4603 240.6478 15.08841504 36423,6917.876,95.437,540.356,539.126,0.0
53418.0,STARLINK-4481,PAYLOAD,2023-04-02 13:15:24,15.08845551,8.15e-05,53.2155,236.6985,105.6597,254.4485,0.00017344,2.474e-05,0.0,0 STARLINK-4481,1 53418U 22097AG  23092.55237156  .00002474  00000-0  17344-3 0  9990,2 53418  53.2155 236.6985 0000815 105.6597 254.4485 15.08845551 36946,6917.863,95.437,540.292,539.165,0.0
53418.0,STARLINK-4481,PAYLOAD,2023-04-02 16:26:10,15.08855176,8.33e-05,53.2153,236.1044,103.9704,256.1381,0.00035357,5.346e-05,0.0,0 STARLINK-4481,1 53418U 22097AG  23092.68484700  .00005346  00000-0  35357-3 0  9998,2 53418  53.2153 236.1044 0000833 103.9704 256.1381 15.08855176 36472,6917.834,95.437,540.275,539.123,0.0
53418.0,STARLINK-4481,PAYLOAD,2023-04-03 01:58:29,15.08843579,9.92e-05,53.216,234.3217,92.184,267.9265,0.00015063,2.111e-05,0.0,0 STARLINK-4481,1 53418U 22097AG  23093.08229143  .00002111  00000-0  15063-3 0  9990,2 53418  53.2160 234.3217 0000992  92.1840 267.9265 15.08843579 36530,6917.869,95.437,540.421,539.048,0.0
53418.0,STARLINK-4481,PAYLOAD,2023-04-03 09:55:26,15.08820317,8.02e-05,53.2155,232.8327,87.2608,272.8476,-8.3061e-05,-1.609e-05,0.0,0 STARLINK-4481,1 53418U 22097AG  23093.41350651 -.00001609  00000-0 -83061-4 0  9993,2 53418  53.2155 232.8327 0000802  87.2608 272.8476 15.08820317 36585,6917.941,95.439,540.36,539.251,0.0
53418.0,STARLINK-4481,PAYLOAD,2023-04-03 17:52:22,15.08826174,0.000119,53.2156,231.3461,72.7433,287.3689,-0.00012521,-2.279e-05,0.0,0 STARLINK-4481,1 53418U 22097AG  23093.74470479 -.00002279  00000-0 -12521-3 0  9996,2 53418  53.2156 231.3461 0001190  72.7433 287.3689 15.08826174 36635,6917.923,95.438,540.611,538.964,0.0
53418.0,STARLINK-4481,PAYLOAD,2023-04-04 09:46:13,15.08848452,0.0001054,53.2161,228.3722,78.7515,281.3595,0.0003903,5.931e-05,0.0,0 STARLINK-4481,1 53418U 22097AG  23094.40709911  .00005931  00000-0  39030-3 0  9996,2 53418  53.2161 228.3722 0001054  78.7515 281.3595 15.08848452 36737,6917.855,95.437,540.449,538.99,0.0
53418.0,STARLINK-4481,PAYLOAD,2023-04-04 16:07:45,15.08857625,0.000103,53.2174,227.1839,77.021,283.0897,0.00099246,0.0001555,0.0,0 STARLINK-4481,1 53418U 22097AG  23094.67205870  .00015550  00000-0  99246-3 0  9993,2 53418  53.2174 227.1839 0001030  77.0210 283.0897 15.08857625 37260,6917.827,95.436,540.404,538.979,0.0
53418.0,STARLINK-4481,PAYLOAD,2023-04-05 14:23:10,15.08840729,9.31e-05,53.2134,223.0176,43.6266,316.4799,0.000366,5.542e-05,0.0,0 STARLINK-4481,1 53418U 22097AG  23095.59942302  .00005542  00000-0  36600-3 0  9998,2 53418  53.2134 223.0176 0000931  43.6266 316.4799 15.08840729 37409,6917.878,95.438,540.387,539.099,0.0
53418.0,STARLINK-4481,PAYLOAD,2023-04-05 15:58:33,15.08840482,0.0001154,53.2147,222.7209,60.1812,299.9295,0.00035847,5.422e-05,0.0,0 STARLINK-4481,1 53418U 22097AG  23095.66566363  .00005422  00000-0  35847-3 0  9994,2 53418  53.2147 222.7209 0001154  60.1812 299.9295 15.08840482 36923,6917.879,95.438,540.542,538.946,0.0
53418.0,STARLINK-4481,PAYLOAD,2023-04-06 07:52:24,15.08841904,0.0001243,53.2161,219.7483,75.6419,284.4711,0.0003463,5.228e-05,0.0,0 STARLINK-4481,1 53418U 22097AG  23096.32806493  .00005228  00000-0  34630-3 0  9992,2 53418  53.2161 219.7483 0001243  75.6419 284.4711 15.08841904 37510,6917.875,95.437,540.599,538.88,0.0
53418.0,STARLINK-4481,PAYLOAD,2023-04-07 12:29:20,15.08847943,0.0001229,53.2157,214.3975,68.869,291.2434,6.2973e-05,7.15e-06,0.0,0 STARLINK-4481,1 53418U 22097AG  23097.52037967  .00000715  00000-0  62973-4 0  9995,2 53418  53.2157 214.3975 0001229  68.8690 291.2434 15.08847943 37204,6917.856,95.437,540.571,538.871,0.0
53418.0,STARLINK-4481,PAYLOAD,2023-04-08 12:20:08,15.08836809,0.0001397,53.2153,209.9372,69.9318,290.1824,-3.7882e-05,-8.91e-06,0.0,0 STARLINK-4481,1 53418U 22097AG  23098.51398622 -.00000891  00000-0 -37882-4 0  9991,2 53418  53.2153 209.9372 0001397  69.9318 290.1824 15.08836809 37352,6917.89,95.438,540.722,538.789,0.0
53418.0,STARLINK-4481,PAYLOAD,2023-04-09 10:35:32,15.08832063,0.0001312,53.217,205.7751,65.1398,294.973,2.9146e-06,-2.41e-06,0.0,0 STARLINK-4481,1 53418U 22097AG  23099.44135297 -.00000241  00000-0  29146-5 0  9994,2 53418  53.2170 205.7751 0001312  65.1398 294.9730 15.08832063 37984,6917.905,95.438,540.677,538.862,0.0
53418.0,STARLINK-4481,PAYLOAD,2023-04-09 16:57:04,15.08840665,0.0001425,53.2156,204.5805,101.5538,258.5614,-1.7704e-05,-5.7e-06,0.0,0 STARLINK-4481,1 53418U 22097AG  23099.70630658 -.00000570  00000-0 -17704-4 0  9996,2 53418  53.2156 204.5805 0001425 101.5538 258.5614 15.08840665 37536,6917.878,95.438,540.729,538.758,0.0
53418.0,STARLINK-4481,PAYLOAD,2023-04-10 05:40:10,15.0883776,0.0001374,53.2158,202.2019,94.027,266.0879,0.00010618,1.402e-05,0.0,0 STARLINK-4481,1 53418U 22097AG  23100.23622713  .00001402  00000-0  10618-3 0  9999,2 53418  53.2158 202.2019 0001374  94.0270 266.0879 15.08837760 38105,6917.887,95.438,540.703,538.802,0.0
53418.0,STARLINK-4481,PAYLOAD,2023-04-10 16:47:51,15.0884665,0.0002438,53.2165,200.1232,75.9648,284.1615,0.00017861,2.556e-05,0.0,0 STARLINK-4481,1 53418U 22097AG  23100.69990086  .00002556  00000-0  17861-3 0  9998,2 53418  53.2165 200.1232 0002438  75.9648 284.1615 15.08846650 37685,6917.86,95.437,541.412,538.038,0.0
53418.0,STARLINK-4481,PAYLOAD,2023-04-11 11:52:29,15.08843252,0.0001295,53.2157,196.5537,89.1629,270.9511,9.3486e-05,1.2e-05,0.0,0 STARLINK-4481,1 53418U 22097AG  23101.49478135  .00001200  00000-0  93486-4 0  9996,2 53418  53.2157 196.5537 0001295  89.1629 270.9511 15.08843252 38299,6917.87,95.437,540.631,538.84,0.0
53418.0,STARLINK-4481,PAYLOAD,2023-04-12 11:43:16,15.08796526,0.0001306,53.2178,192.0945,102.8394,257.2744,0.00053185,8.177e-05,0.0,0 STARLINK-4481,1 53418U 22097AG  23102.48838211  .00008177  00000-0  53185-3 0  9992,2 53418  53.2178 192.0945 0001306 102.8394 257.2744 15.08796526 37950,6918.013,95.44,540.782,538.975,0.0
53418.0,STARLINK-4481,PAYLOAD,2023-04-12 14:54:02,15.08853029,0.0001499,53.218,191.4998,92.7062,267.4101,-0.00013415,-2.423e-05,0.0,0 STARLINK-4481,1 53418U 22097AG  23102.62085992 -.00002423  00000-0 -13415-3 0  9990,2 53418  53.2180 191.4998 0001499  92.7062 267.4101 15.08853029 37970,6917.841,95.437,540.743,538.669,0.0
53418.0,STARLINK-4481,PAYLOAD,2023-04-12 22:50:57,15.08850743,0.0001553,53.2178,190.0133,76.408,283.7085,-0.00014035,-2.522e-05,0.0,0 STARLINK-4481,1 53418U 22097AG  23102.95205955 -.00002522  00000-0 -14035-3 0  9998,2 53418  53.2178 190.0133 0001553  76.4080 283.7085 15.08850743 38516,6917.848,95.437,540.787,538.638,0.0
53418.0,STARLINK-4481,PAYLOAD,2023-04-13 11:34:03,15.08831405,0.0001214,53.2182,187.6345,92.4298,267.6833,-5.232e-05,-1.12e-05,0.0,0 STARLINK-4481,1 53418U 22097AG  23103.48198973 -.00001120  00000-0 -52320-4 0  9991,2 53418  53.2182 187.6345 0001214  92.4298 267.6833 15.08831405 38102,6917.907,95.438,540.611,538.932,0.0
53418.0,STARLINK-4481,PAYLOAD,2023-04-14 11:24:51,15.08834624,0.0001455,53.2156,183.1754,26.6176,333.4891,0.00013188,1.811e-05,0.0,0 STARLINK-4481,1 53418U 22097AG  23104.47559936  .00001811  00000-0  13188-3 0  9994,2 53418  53.2156 183.1754 0001455  26.6176 333.4891 15.08834624 38741,6917.897,95.438,540.768,538.755,0.0
53418.0,STARLINK-4481,PAYLOAD,2023-04-14 22:32:33,15.08838552,0.0001826,53.2176,181.092,74.2078,285.9116,6.522e-05,7.5e-06,0.0,0 STARLINK-4481,1 53418U 22097AG  23104.93927880  .00000750  00000-0  65220-4 0  9998,2 53418  53.2176 181.0920 0001826  74.2078 285.9116 15.08838552 38326,6917.885,95.438,541.013,538.487,0.0
53418.0,STARLINK-4481,PAYLOAD,2023-04-15 11:15:39,15.08819733,0.0001725,53.2148,178.7139,70.7702,289.3477,0.00037389,5.664e-05,0.0,0 STARLINK-4481,1 53418U 22097AG  23105.46920154  .00005664  00000-0  37389-3 0  9997,2 53418  53.2148 178.7139 0001725  70.7702 289.3477 15.08819733 38893,6917.942,95.439,541.001,538.614,0.0
53418.0,STARLINK-4481,PAYLOAD,2023-04-15 22:23:20,15.08830606,0.0001607,53.2156,176.6312,75.0956,285.0214,0.00042405,6.465e-05,0.0,0 STARLINK-4481,1 53418U 22097AG  23105.93287650  .00006465  00000-0  42405-3 0  9991,2 53418  53.2156 176.6312 0001607  75.0956 285.0214 15.08830606 38478,6917.909,95.438,540.886,538.662,0.0
